[{"OBJECT_NAME":"YAOGAN-32 02A","OBJECT_ID":"2021-099A","EPOCH":"2026-03-09T22:33:38.098656","MEAN_MOTION":14.63972652,"ECCENTRICITY":0.00016236,"INCLINATION":98.2296,"RA_OF_ASC_NODE":202.7194,"ARG_OF_PERICENTER":131.3577,"MEAN_ANOMALY":228.7765,"EPHEMERIS_TYPE":0,"CLASSIFICATION_TYPE":"U","NORAD_CAT_ID":49383,"ELEMENT_SET_NO":999,"REV_AT_EPOCH":23184,"BSTAR":0.00047285778,"MEAN_MOTION_DOT":2.429e-5,"MEAN_MOTION_DDOT":0},{"OBJECT_NAME":"METEOR 2-7 DEB","OBJECT_ID":"1981-043F","EPOCH":"2026-03-08T20:25:54.484320","MEAN_MOTION":14.61822568,"ECCENTRICITY":0.00222285,"INCLINATION":81.2695,"RA_OF_ASC_NODE":23.9813,"ARG_OF_PERICENTER":316.6747,"MEAN_ANOMALY":43.2704,"EPHEMERIS_TYPE":0,"CLASSIFICATION_TYPE":"U","NORAD_CAT_ID":28389,"ELEMENT_SET_NO":999,"REV_AT_EPOCH":11335,"BSTAR":0.004981224,"MEAN_MOTION_DOT":0.00025046,"MEAN_MOTION_DDOT":0}]
